LUCKY-7                 
1 44406U 19038W   23049.39746273  .00015414  00000+0  71651-3 0  9995
2 44406  97.6692  25.8414 0020711   8.6915 351.4674 15.19881321200251
BEESAT 9                
1 44412U 19038AC  23048.93415306  .00026797  00000+0  11287-2 0  9995
2 44412  97.6640  26.3073 0017968  14.6345 345.5408 15.23176639199960
JAISAT-1                
1 44419U 19038F   23049.37145358  .00023682  00000+0  98612-3 0  9996
2 44419  97.6645  27.7721 0016723  10.3972 349.7606 15.23610973200406
DUCHIFAT-3              
1 44854U 19089C   23049.41849640  .00013790  00000+0  98811-3 0  9995
2 44854  36.9623  79.8886 0006497  65.2794  60.9627 15.03778143174934
EYESAT-NANO             
1 44877U 19092E   23049.42237636  .00033245  00000+0  11168-2 0  9997
2 44877  97.4587 238.1736 0009536 214.9695 145.0921 15.30729411175863
ORBITAL FACTORY 2 (OF-2)
1 45113U 19071C   23048.84548341  .00259718  00000+0  14349-2 0  9990
2 45113  51.6275 274.0850 0002799 254.4762 105.5929 15.78318827171566
M2 PATHFINDER           
1 45727U 20037E   23049.28307576  .00005841  00000+0  56607-3 0  9997
2 45727  97.7460 225.6171 0011728 302.2899  57.7250 14.93028677143490
NETSAT-4                
1 46504U 20068U   23049.63509801  .00012092  00000+0  84080-3 0  9991
2 46504  97.7498 354.5817 0010615 203.7105 156.3609 15.05612433131059
NETSAT-3                
1 46505U 20068V   23049.59197064  .00011732  00000+0  81816-3 0  9995
2 46505  97.7422 354.4068 0008899 211.1058 148.9655 15.05523996131058
NETSAT-1                
1 46506U 20068W   23049.61869742  .00010377  00000+0  72661-3 0  9990
2 46506  97.7451 354.3397 0007148 220.9349 139.1286 15.05418274131056
NETSAT-2                
1 46507U 20068X   23049.56100113  .00012230  00000+0  85291-3 0  9998
2 46507  97.7503 354.2835 0005993 230.9458 129.1204 15.05530742130995
SAI-1 NANOCONNECT-2     
1 47701U 21015C   23049.17176657  .00035774  00000+0  99937-3 0  9991
2 47701  97.3987 130.7996 0009024 299.8879  60.1468 15.36580738109805
WILDTRACKCUBE-SIMBA     
1 47941U 21022K   23049.47181301  .00014448  00000+0  89084-3 0  9997
2 47941  97.5111 308.7666 0021219  29.0520 144.3477 15.09857707105072
BEESAT-6                
1 47957U 21022AB  23049.49139981  .00019836  00000+0  10950-2 0  9994
2 47957  97.5090 309.6367 0019721  29.1258 331.1069 15.13805825104944
SMOG-1                  
1 47964U 21022AJ  23049.29748952  .00018549  00000+0  98055-3 0  9997
2 47964  97.5123 311.1087 0017528  18.8340 341.3537 15.15395199104039
MMSATS-1                
1 47976U 98067SJ  23049.53527480  .00222331  00000+0  85653-3 0  9997
2 47976  51.6326 153.1210 0001812 320.0793 110.0924 15.86151366108869
BCCSAT-1                
1 48041U 21022AK  23049.45146184  .00017709  00000+0  97539-3 0  9994
2 48041  97.5125 310.5051 0014683  19.5075 340.6715 15.13984989103986
BEESAT-5                
1 48083U 21022AM  23048.96201185  .00023734  00000+0  12816-2 0  9997
2 48083  97.5054 309.1937 0019594  31.2633 328.9760 15.14555329104003
BEESAT-7                
1 48084U 21022AN  23049.46176119  .00021394  00000+0  11716-2 0  9990
2 48084  97.5085 309.6601 0019719  28.4319 331.7984 15.14074375103667
BEESAT-8                
1 48085U 21022AP  23049.53405719  .00015706  00000+0  89517-3 0  9995
2 48085  97.5111 309.5849 0019951  28.4071 331.8243 15.12707942104227
LEDSAT                  
1 49069U 21073D   23049.14064646  .00010778  00000+0  63443-3 0  9995
2 49069  97.4978 122.1715 0025662 169.3800 190.7977 15.11524252 82908
HSU-SAT1                
1 53462U 98067UB  23049.55320268  .00423999  00000+0  14475-2 0  9997
2 53462  51.6283 178.9427 0005060 329.8863  30.1851 15.88104338 29735
1998-067UL              
1 54534U 98067UL  23049.42731689  .00097227  00000+0  11200-2 0  9991
2 54534  51.6359 193.9491 0004270 351.6461   8.4461 15.61167749 12202
1998-067UM              
1 54535U 98067UM  23049.47646025  .00172341  00000+0  18155-2 0  9993
2 54535  51.6372 193.3007 0002252 304.7150 163.8672 15.63176552 12212
1998-067UN              
1 54536U 98067UN  23049.46683109  .00120007  00000+0  14345-2 0  9996
2 54536  51.6394 193.9936 0003532  12.2007  94.6572 15.60105826 12165
1998-067UP              
1 54537U 98067UP  23049.50833057  .00140593  00000+0  15955-2 0  9991
2 54537  51.6402 193.4935 0003724  12.5030 102.2714 15.61375862 12212
MARIO                   
1 55123U 98067UQ  23049.00917638  .00119343  00000+0  14487-2 0  9994
2 55123  51.6391 197.1632 0003879 332.6252  27.4536 15.59703179  7935
NUTSAT                  
1 55124U 98067UR  23049.47431675  .00209381  00000+0  21147-2 0  9991
2 55124  51.6359 194.2638 0006663 325.2779  34.7780 15.64099921  8000
LORIS                   
1 55125U 98067US  23049.54695623  .00088663  00000+0  11573-2 0  9995
2 55125  51.6374 194.7496 0003187   1.1199 358.9800 15.57923930  8023
ORCASAT                 
1 55126U 98067UT  23049.49663016  .00061373  00000+0  84325-3 0  9996
2 55126  51.6373 195.1650 0002910  14.2373 345.8700 15.56707958  8014
TJREVERB                
1 55128U 98067UV  23049.49409572  .00087468  00000+0  11627-2 0  9990
2 55128  51.6365 195.1464 0004670   7.1839 352.9219 15.57437336  8007
SPORT                   
1 55129U 98067UW  23049.41009632  .00044075  00000+0  66621-3 0  9998
2 55129  51.6385 196.0836 0003261   6.3767 353.7264 15.54254023  7981
PETITSAT                
1 55130U 98067UX  23049.52952979  .00161117  00000+0  18551-2 0  9998
2 55130  51.6357 194.6322 0006540 331.7458  28.3180 15.60906454  7960
SS-1                    
1 55181U 98067UY  23049.43157476  .00103587  00000+0  13283-2 0  9997
2 55181  51.6367 195.4776 0007424 332.6332  27.4268 15.58301589  6705
HSKSAT                  
1 55182U 98067UZ  23049.45324471  .00069005  00000+0  96180-3 0  9995
2 55182  51.6373 195.6224 0006069 330.3780  29.6867 15.56256928  6713
OPTIMAL-1               
1 55183U 98067VA  23049.59275613  .00048410  00000+0  70642-3 0  9996
2 55183  51.6388 195.0563 0004828  36.5848 323.5473 15.55170157  6730
